[{"OBJECT_NAME":"STARLINK-1166","OBJECT_ID":"2020-006S","EPOCH":"2026-03-09T23:09:54.990720","MEAN_MOTION":15.45354542,"ECCENTRICITY":0.00047188,"INCLINATION":53.0527,"RA_OF_ASC_NODE":271.3766,"ARG_OF_PERICENTER":148.0301,"MEAN_ANOMALY":212.0992,"EPHEMERIS_TYPE":0,"CLASSIFICATION_TYPE":"U","NORAD_CAT_ID":45060,"ELEMENT_SET_NO":999,"REV_AT_EPOCH":33670,"BSTAR":0.0022317657,"MEAN_MOTION_DOT":0.00109358,"MEAN_MOTION_DDOT":0},{"OBJECT_NAME":"OBJECT D","OBJECT_ID":"2024-016D","EPOCH":"2026-03-09T22:53:28.816800","MEAN_MOTION":15.4556328,"ECCENTRICITY":0.00075961,"INCLINATION":97.4354,"RA_OF_ASC_NODE":155.9943,"ARG_OF_PERICENTER":82.5472,"MEAN_ANOMALY":277.6639,"EPHEMERIS_TYPE":0,"CLASSIFICATION_TYPE":"U","NORAD_CAT_ID":58823,"ELEMENT_SET_NO":999,"REV_AT_EPOCH":11841,"BSTAR":0.0008320931,"MEAN_MOTION_DOT":0.00040089,"MEAN_MOTION_DDOT":0}]
